{
    "links": {
        "self": "http://www.neowsapp.com/rest/v1/neo/3398651?api_key=iIulBulltgU6a56xZRHN4H3l9WmuAYTsLGpBGhQ2"
    },
    "id": "3398651",
    "neo_reference_id": "3398651",
    "name": "(2007 YP56)",
    "designation": "2007 YP56",
    "nasa_jpl_url": "http://ssd.jpl.nasa.gov/sbdb.cgi?sstr=3398651",
    "absolute_magnitude_h": 25.8,
    "estimated_diameter": {
        "kilometers": {
            "estimated_diameter_min": 0.0183888672,
            "estimated_diameter_max": 0.0411187571
        },
        "meters": {
            "estimated_diameter_min": 18.388867207,
            "estimated_diameter_max": 41.1187571041
        },
        "miles": {
            "estimated_diameter_min": 0.0114263088,
            "estimated_diameter_max": 0.0255500032
        },
        "feet": {
            "estimated_diameter_min": 60.3309310875,
            "estimated_diameter_max": 134.9040630575
        }
    },
    "is_potentially_hazardous_asteroid": false,
    "close_approach_data": [
        {
            "close_approach_date": "2007-12-27",
            "close_approach_date_full": "2007-Dec-27 16:50",
            "epoch_date_close_approach": 1198774200000,
            "relative_velocity": {
                "kilometers_per_second": "21.3446029115",
                "kilometers_per_hour": "76840.570481535",
                "miles_per_hour": "47745.7422528182"
            },
            "miss_distance": {
                "astronomical": "0.0013836185",
                "lunar": "0.5382275965",
                "kilometers": "206986.380492595",
                "miles": "128615.372864011"
            },
            "orbiting_body": "Earth"
        },
        {
            "close_approach_date": "2007-12-27",
            "close_approach_date_full": "2007-Dec-27 19:52",
            "epoch_date_close_approach": 1198785120000,
            "relative_velocity": {
                "kilometers_per_second": "22.0589235609",
                "kilometers_per_hour": "79412.1248193462",
                "miles_per_hour": "49343.6061134432"
            },
            "miss_distance": {
                "astronomical": "0.0031284671",
                "lunar": "1.2169737019",
                "kilometers": "468012.014525077",
                "miles": "290809.1808249826"
            },
            "orbiting_body": "Moon"
        }
    ],
    "orbital_data": {
        "orbit_id": "6",
        "orbit_determination_date": "2017-04-06 09:04:50",
        "first_observation_date": "2007-12-30",
        "last_observation_date": "2008-01-01",
        "data_arc_in_days": 2,
        "observations_used": 22,
        "orbit_uncertainty": "8",
        "minimum_orbit_intersection": ".000550523",
        "jupiter_tisserand_invariant": "3.483",
        "epoch_osculation": "2454465.5",
        "eccentricity": ".7081662056090356",
        "semi_major_axis": "1.994537887250491",
        "inclination": "1.67730967554155",
        "ascending_node_longitude": "273.4184179746036",
        "orbital_period": "1028.873217802771",
        "perihelion_distance": ".5820735596928482",
        "perihelion_argument": "92.86145169954908",
        "aphelion_distance": "3.407002214808134",
        "perihelion_time": "2454416.607450328051",
        "mean_anomaly": "17.10737297593425",
        "mean_motion": ".3498973379526824",
        "equinox": "J2000",
        "orbit_class": {
            "orbit_class_type": "APO",
            "orbit_class_description": "Near-Earth asteroid orbits which cross the Earth’s orbit similar to that of 1862 Apollo",
            "orbit_class_range": "a (semi-major axis) > 1.0 AU; q (perihelion) < 1.017 AU"
        }
    },
    "is_sentry_object": false
}